[
    {
        "Altitude(m)": 610399.5017961764,
        "Argument of Periapsis(deg)": 0.0,
        "Eccentricity": 0.0,
        "Inclination(deg)": 60.0,
        "Latitude(deg)": 52.111260341741136,
        "Longitude(deg)": -97.41567552163859,
        "Mean Anomaly(deg)": -294.5455,
        "RAAN(deg)": 315.0,
        "Satellite Name": "Test1 1390",
        "Satellite Number": 1390,
        "Semi-Major Axis(m)": 6980739.136638005,
        "Time(s)": 0
    },
    {
        "Altitude(m)": 610481.6529004414,
        "Argument of Periapsis(deg)": 0.00010418945913296404,
        "Eccentricity": 0.0,
        "Inclination(deg)": 60.0,
        "Latitude(deg)": 52.470862408912794,
        "Longitude(deg)": -96.63354037955511,
        "Mean Anomaly(deg)": -293.9253938545382,
        "RAAN(deg)": 314.99957995086027,
        "Satellite Name": "Test1 1390",
        "Satellite Number": 1390,
        "Semi-Major Axis(m)": 6980739.136638005,
        "Time(s)": 10
    }
]